NORAD_CAT_ID,OBJECT_NAME,OBJECT_TYPE,EPOCH,MEAN_MOTION,ECCENTRICITY,INCLINATION,RA_OF_ASC_NODE,ARG_OF_PERICENTER,MEAN_ANOMALY,BSTAR,MEAN_MOTION_DOT,MEAN_MOTION_DDOT,TLE_LINE0,TLE_LINE1,TLE_LINE2,SEMIMAJOR_AXIS,PERIOD,APOGEE,PERIGEE,DECAYED
55926.0,STARLINK-5921,PAYLOAD,2023-05-18 14:13:27,15.6992552,0.0003444,69.9981,7.2523,263.7875,96.2928,9.1095e-06,8.83e-06,0.0,0 STARLINK-5921,1 55926U 23037N   23138.59268293  .00000883  00000-0  91095-5 0  9991,2 55926  69.9981   7.2523 0003444 263.7875  96.2928 15.69925520  9899,6737.247,91.724,361.432,356.792,0.0
55926.0,STARLINK-5921,PAYLOAD,2023-05-18 15:45:12,15.6992485,0.0003574,69.998,7.0734,262.5374,97.5416,8.7079e-06,8.34e-06,0.0,0 STARLINK-5921,1 55926U 23037N   23138.65639975  .00000834  00000-0  87079-5 0  9990,2 55926  69.9980   7.0734 0003574 262.5374  97.5416 15.69924850  9908,6737.249,91.724,361.522,356.706,0.0
55926.0,STARLINK-5921,PAYLOAD,2023-05-19 00:55:44,15.69867851,0.0003128,69.9982,5.9989,270.5231,89.5606,0.00012089,0.00014314,0.0,0 STARLINK-5921,1 55926U 23037N   23139.03871198  .00014314  00000-0  12089-3 0  9993,2 55926  69.9982   5.9989 0003128 270.5231  89.5606 15.69867851 10300,6737.412,91.727,361.385,357.17,0.0
55926.0,STARLINK-5921,PAYLOAD,2023-05-19 19:16:46,15.69862898,0.0003074,69.998,3.8491,268.94,91.1443,0.00011367,0.00013442,0.0,0 STARLINK-5921,1 55926U 23037N   23139.80331776  .00013442  00000-0  11367-3 0  9990,2 55926  69.9980   3.8491 0003074 268.9400  91.1443 15.69862898 10081,6737.426,91.728,361.362,357.22,0.0
55926.0,STARLINK-5921,PAYLOAD,2023-05-20 01:23:45,15.6992192,0.0003742,69.9981,3.1326,259.6415,100.4359,9.9457e-09,-2.12e-06,0.0,0 STARLINK-5921,1 55926U 23037N   23140.05817080 -.00000212  00000-0  99457-8 0  9999,2 55926  69.9981   3.1326 0003742 259.6415 100.4359 15.69921920 10461,6737.257,91.724,361.643,356.601,0.0
55926.0,STARLINK-5921,PAYLOAD,2023-05-20 16:41:15,15.69964031,0.0003737,69.9997,1.342,262.0005,98.0767,-2.5705e-05,-3.308e-05,0.0,0 STARLINK-5921,1 55926U 23037N   23140.69531486 -.00003308  00000-0 -25705-4 0  9993,2 55926  69.9997   1.3420 0003737 262.0005  98.0767 15.69964031 10566,6737.137,91.722,361.52,356.484,0.0
55926.0,STARLINK-5921,PAYLOAD,2023-05-20 21:16:31,15.69930659,0.0003497,69.9986,0.803,264.782,95.2977,4.4001e-06,3.16e-06,0.0,0 STARLINK-5921,1 55926U 23037N   23140.88647800  .00000316  00000-0  44001-5 0  9997,2 55926  69.9986   0.8030 0003497 264.7820  95.2977 15.69930659 10259,6737.232,91.724,361.453,356.741,0.0
55926.0,STARLINK-5921,PAYLOAD,2023-05-21 00:20:05,15.69884233,0.0002884,69.9984,0.4461,276.7757,83.3111,-3.9246e-05,-4.92e-05,0.0,0 STARLINK-5921,1 55926U 23037N   23141.01395079 -.00004920  00000-0 -39246-4 0  9992,2 55926  69.9984   0.4461 0002884 276.7757  83.3111 15.69884233 10616,6737.365,91.727,361.173,357.287,0.0
55926.0,STARLINK-5921,PAYLOAD,2023-05-21 14:05:49,15.69919031,0.0003596,69.9976,358.8319,269.7584,90.32,-2.5022e-05,-3.22e-05,0.0,0 STARLINK-5921,1 55926U 23037N   23141.58738268 -.00003220  00000-0 -25022-4 0  9994,2 55926  69.9976 358.8319 0003596 269.7584  90.3200 15.69919031 10364,6737.266,91.724,361.553,356.708,0.0
55926.0,STARLINK-5921,PAYLOAD,2023-05-21 15:37:33,15.69929442,0.00029,69.9978,358.6541,256.9938,103.0934,3.4887e-07,-1.71e-06,0.0,0 STARLINK-5921,1 55926U 23037N   23141.65108742 -.00000171  00000-0  34887-6 0  9992,2 55926  69.9978 358.6541 0002900 256.9938 103.0934 15.69929442 10712,6737.236,91.724,361.055,357.147,0.0
55926.0,STARLINK-5921,PAYLOAD,2023-05-21 18:41:03,15.69939272,0.000372,69.9977,358.2942,262.6212,97.4561,5.4775e-06,4.46e-06,0.0,0 STARLINK-5921,1 55926U 23037N   23141.77851331  .00000446  00000-0  54775-5 0  9995,2 55926  69.9977 358.2942 0003720 262.6212  97.4561 15.69939272 10390,6737.208,91.723,361.579,356.567,0.0
55926.0,STARLINK-5921,PAYLOAD,2023-05-21 23:16:18,15.69950084,0.0003517,69.9976,357.7561,265.5004,94.579,-2.8317e-07,-2.47e-06,0.0,0 STARLINK-5921,1 55926U 23037N   23141.96965687 -.00000247  00000-0 -28317-6 0  9991,2 55926  69.9976 357.7561 0003517 265.5004  94.5790 15.69950084 10762,6737.177,91.723,361.411,356.672,0.0
55926.0,STARLINK-5921,PAYLOAD,2023-05-22 16:05:35,15.69920956,0.0003574,69.9968,355.7864,266.2419,93.8368,1.4971e-05,1.587e-05,0.0,0 STARLINK-5921,1 55926U 23037N   23142.67055222  .00001587  00000-0  14971-4 0  9990,2 55926  69.9968 355.7864 0003574 266.2419  93.8368 15.69920956 10878,6737.26,91.724,361.533,356.717,0.0
55926.0,STARLINK-5921,PAYLOAD,2023-05-22 20:40:51,15.69922912,0.0003555,69.9974,355.2498,267.4316,92.6473,1.621e-05,1.737e-05,0.0,0 STARLINK-5921,1 55926U 23037N   23142.86170217  .00001737  00000-0  16210-4 0  9998,2 55926  69.9974 355.2498 0003555 267.4316  92.6473 15.69922912 10565,6737.255,91.724,361.515,356.724,0.0
55926.0,STARLINK-5921,PAYLOAD,2023-05-23 16:33:38,15.69926209,0.0003417,69.9975,352.92,268.6133,91.4671,-1.5277e-06,-3.97e-06,0.0,0 STARLINK-5921,1 55926U 23037N   23143.69002545 -.00000397  00000-0 -15277-5 0  9994,2 55926  69.9975 352.9200 0003417 268.6133  91.4671 15.69926209 11031,6737.245,91.724,361.412,356.808,0.0
55926.0,STARLINK-5921,PAYLOAD,2023-05-24 15:29:55,15.69913878,0.0002915,69.9955,350.2295,254.8173,105.27,2.3797e-05,2.648e-05,0.0,0 STARLINK-5921,1 55926U 23037N   23144.64577629  .00002648  00000-0  23797-4 0  9994,2 55926  69.9955 350.2295 0002915 254.8173 105.2700 15.69913878 10840,6737.28,91.725,361.109,357.181,0.0
55926.0,STARLINK-5921,PAYLOAD,2023-05-25 14:26:11,15.69926053,0.0003084,69.9976,347.5463,256.3816,103.7037,3.8835e-06,2.54e-06,0.0,0 STARLINK-5921,1 55926U 23037N   23145.60152515  .00000254  00000-0  38835-5 0  9995,2 55926  69.9976 347.5463 0003084 256.3816 103.7037 15.69926053 10999,6737.246,91.724,361.188,357.033,0.0
55926.0,STARLINK-5921,PAYLOAD,2023-05-25 15:57:56,15.69925935,0.0003096,69.9978,347.3671,256.0188,104.0664,5.4547e-06,4.43e-06,0.0,0 STARLINK-5921,1 55926U 23037N   23145.66524134  .00000443  00000-0  54547-5 0  9999,2 55926  69.9978 347.3671 0003096 256.0188 104.0664 15.69925935 11340,6737.246,91.724,361.197,357.025,0.0
55926.0,STARLINK-5921,PAYLOAD,2023-05-25 22:04:57,15.69930991,0.0003109,69.9975,346.6507,261.7148,98.3695,9.0257e-06,8.73e-06,0.0,0 STARLINK-5921,1 55926U 23037N   23145.92010439  .00000873  00000-0  90257-5 0  9991,2 55926  69.9975 346.6507 0003109 261.7148  98.3695 15.69930991 11045,6737.231,91.724,361.191,357.002,0.0
55926.0,STARLINK-5921,PAYLOAD,2023-05-25 23:36:43,15.69909432,0.0003607,69.9973,346.4705,264.6524,95.426,-1.106e-05,-1.542e-05,0.0,0 STARLINK-5921,1 55926U 23037N   23145.98383692 -.00001542  00000-0 -11060-4 0  9991,2 55926  69.9973 346.4705 0003607 264.6524  95.4260 15.69909432 11394,6737.293,91.725,361.588,356.728,0.0
55926.0,STARLINK-5921,PAYLOAD,2023-05-26 13:22:29,15.69920099,0.0004391,69.9965,344.8582,269.022,91.0472,-8.9476e-06,-1.289e-05,0.0,0 STARLINK-5921,1 55926U 23037N   23146.55728157 -.00001289  00000-0 -89476-5 0  9999,2 55926  69.9965 344.8582 0004391 269.0220  91.0472 15.69920099 11145,6737.263,91.724,362.086,356.169,0.0
55926.0,STARLINK-5921,PAYLOAD,2023-05-26 16:25:59,15.69926275,0.0003871,69.997,344.4997,275.9389,84.1365,-2.4453e-06,-5.07e-06,0.0,0 STARLINK-5921,1 55926U 23037N   23146.68471106 -.00000507  00000-0 -24453-5 0  9998,2 55926  69.9970 344.4997 0003871 275.9389  84.1365 15.69926275 11507,6737.245,91.724,361.718,356.502,0.0
55926.0,STARLINK-5921,PAYLOAD,2023-05-26 21:01:14,15.69929891,0.0003218,69.9975,343.963,264.9774,95.1055,1.2984e-06,-5.7e-07,0.0,0 STARLINK-5921,1 55926U 23037N   23146.87585777 -.00000057  00000-0  12984-5 0  9994,2 55926  69.9975 343.9630 0003218 264.9774  95.1055 15.69929891 11191,6737.235,91.724,361.268,356.932,0.0
55926.0,STARLINK-5921,PAYLOAD,2023-05-27 21:29:16,15.69923893,0.0003584,69.9964,341.095,272.3043,87.7742,3.6218e-06,2.23e-06,0.0,0 STARLINK-5921,1 55926U 23037N   23147.89532902  .00000223  00000-0  36218-5 0  9999,2 55926  69.9964 341.0950 0003584 272.3043  87.7742 15.69923893 11355,6737.252,91.724,361.531,356.702,0.0
55926.0,STARLINK-5921,PAYLOAD,2023-05-27 23:01:01,15.69924411,0.0003637,69.9964,340.9159,273.1677,86.9103,3.6135e-06,2.22e-06,0.0,0 STARLINK-5921,1 55926U 23037N   23147.95904541  .00000222  00000-0  36135-5 0  9995,2 55926  69.9964 340.9159 0003637 273.1677  86.9103 15.69924411 11703,6737.25,91.724,361.566,356.665,0.0
55926.0,STARLINK-5921,PAYLOAD,2023-05-28 20:25:32,15.69933538,0.0003669,69.9962,338.4088,270.5325,89.545,1.3313e-05,1.389e-05,0.0,0 STARLINK-5921,1 55926U 23037N   23148.85107101  .00001389  00000-0  13313-4 0  9999,2 55926  69.9962 338.4088 0003669 270.5325  89.5450 15.69933538 11502,6737.224,91.724,361.561,356.617,0.0
55926.0,STARLINK-5921,PAYLOAD,2023-05-28 21:57:17,15.69930672,0.0003416,69.9968,338.2298,262.2541,97.8267,9.776e-06,9.63e-06,0.0,0 STARLINK-5921,1 55926U 23037N   23148.91478973  .00000963  00000-0  97760-5 0  9990,2 55926  69.9968 338.2298 0003416 262.2541  97.8267 15.69930672 11859,6737.232,91.724,361.399,356.796,0.0
55926.0,STARLINK-5921,PAYLOAD,2023-05-29 05:36:04,15.69911846,0.0003623,69.9965,337.3339,272.7143,87.3638,-1.7662e-06,-4.25e-06,0.0,0 STARLINK-5921,1 55926U 23037N   23149.23338815 -.00000425  00000-0 -17662-5 0  9994,2 55926  69.9965 337.3339 0003623 272.7143  87.3638 15.69911846 11900,6737.286,91.725,361.592,356.71,0.0
55926.0,STARLINK-5921,PAYLOAD,2023-05-29 14:46:35,15.69917761,0.0003731,69.996,336.2596,270.669,89.4078,2.927e-06,1.39e-06,0.0,0 STARLINK-5921,1 55926U 23037N   23149.61568558  .00000139  00000-0  29270-5 0  9993,2 55926  69.9960 336.2596 0003731 270.6690  89.4078 15.69917761 11624,6737.269,91.725,361.648,356.621,0.0
55926.0,STARLINK-5921,PAYLOAD,2023-05-29 20:53:35,15.69928759,0.0003272,69.997,335.5424,275.2703,84.812,1.3802e-05,1.447e-05,0.0,0 STARLINK-5921,1 55926U 23037N   23149.87054460  .00001447  00000-0  13802-4 0  9999,2 55926  69.9970 335.5424 0003272 275.2703  84.8120 15.69928759 11663,6737.238,91.724,361.307,356.898,0.0
